372 Palma,e,23.82997,327.36957,115.60274,3.1508992,0,0.2597272,240.51885,1/13/2016,2000.0,7.5,0.15
128 Nemesis,e,6.2434,76.2641,303.81362,2.7507304,0,0.1263372,172.50041,1/13/2016,2000.0,7.49,0.15
16 Psyche,e,3.09903,150.27691,227.10286,2.9218051,0,0.1360462,53.59679,1/13/2016,2000.0,5.9,0.2
6 Hebe,e,14.74416,138.69967,239.64121,2.4270715,0,0.2016652,133.26488,1/13/2016,2000.0,5.71,0.24
5145 Pholus,e,24.71746,119.28082,355.05854,20.3666732,0,0.5727616,95.10302,1/13/2016,2000.0,7.1,0.15
154 Bertha,e,20.97226,36.74965,159.57327,3.1963471,0,0.0772785,90.70614,1/13/2016,2000.0,7.58,0.15
76 Freia,e,2.12122,204.30173,252.79009,3.4124782,0,0.1658928,95.96257,1/13/2016,2000.0,7.9,0.15
59358 1999 CL158,e,10.01747,120.04896,329.74736,41.7361725,0,0.2102774,44.26883,1/13/2016,2000.0,7,0.15
130 Elektra,e,22.86533,145.41028,235.90449,3.1254881,0,0.2082862,93.6077,1/13/2016,2000.0,7.12,0.15
119951 2002 KX14,e,0.4036,286.66798,71.65285,38.8697582,0,0.0417292,261.35119,1/13/2016,2000.0,4.6,0.15
259 Aletheia,e,10.81354,86.85803,168.03775,3.1347704,0,0.1277859,106.80422,1/13/2016,2000.0,7.76,0.15
88611 Teharonhiawako,e,2.58354,304.7812,236.21584,43.8422918,0,0.0316863,158.67259,1/13/2016,2000.0,5.8,0.15
42355 Typhon,e,2.4253,351.91009,159.32115,38.2645372,0,0.5414619,14.61872,1/13/2016,2000.0,7.5,0.15
19255 1994 VK8,e,1.48826,72.39125,112.54389,42.8600999,0,0.035675,267.48285,1/13/2016,2000.0,7,0.15
120 Lachesis,e,6.96427,341.19424,232.68325,3.1173954,0,0.0525166,20.52634,1/13/2016,2000.0,7.75,0.15
65489 Ceto,e,22.2656,171.85438,320.08691,102.8148856,0,0.8263873,9.11906,1/13/2016,2000.0,6.4,0.15
24835 1995 SM55,e,27.09204,21.10308,72.37213,41.760679,0,0.105104,327.65184,1/13/2016,2000.0,4.8,0.15
41 Daphne,e,15.79655,178.09324,45.97059,2.7595585,0,0.2756318,236.32594,1/13/2016,2000.0,7.12,0.1
9 Metis,e,5.57416,68.93528,5.90458,2.3863627,0,0.1220963,316.57737,1/13/2016,2000.0,6.28,0.17
747 Winchester,e,18.1667,130.08116,275.46744,3.0003009,0,0.3401522,21.15842,1/13/2016,2000.0,7.69,0.15
153 Hilda,e,7.82489,228.16818,38.57501,3.9773435,0,0.1395071,26.88636,1/13/2016,2000.0,7.48,0.15
790 Pretoria,e,20.5238,252.03934,38.67107,3.4119629,0,0.1512138,55.80728,1/13/2016,2000.0,8,0.15
96 Aegle,e,15.96838,321.62882,208.78104,3.0513158,0,0.1392758,242.12683,1/13/2016,2000.0,7.67,0.15
241 Germania,e,5.50456,270.36428,80.63488,3.048646,0,0.1019981,240.91138,1/13/2016,2000.0,7.58,0.15
194 Prokne,e,18.50946,159.31586,163.25683,2.6157278,0,0.2380473,355.6779,1/13/2016,2000.0,7.68,0.15
566 Stereoskopia,e,4.88274,79.84226,298.04274,3.3904936,0,0.114706,146.11123,1/13/2016,2000.0,8,0.15
911 Agamemnon,e,21.76253,338.02177,81.56436,5.2735125,0,0.0660013,170.17665,1/13/2016,2000.0,7.89,0.15
22 Kalliope,e,13.71501,66.06858,354.91301,2.9105203,0,0.0994958,319.69559,1/13/2016,2000.0,6.45,0.21
66652 Borasisi,e,0.56296,84.68937,195.17821,43.5751596,0,0.0860063,59.84838,1/13/2016,2000.0,5.9,0.15
54 Alexandra,e,11.80166,313.33272,345.18976,2.7097488,0,0.1982674,112.99728,1/13/2016,2000.0,7.66,0.15
386 Siegena,e,20.25681,166.88632,219.48016,2.8959486,0,0.1707443,26.73789,1/13/2016,2000.0,7.43,0.16
59 Elpis,e,8.64125,170.03585,211.47416,2.7121725,0,0.1192903,254.01523,1/13/2016,2000.0,7.93,0.15
1437 Diomedes,e,20.49106,315.79184,131.61531,5.1930496,0,0.0444234,167.14128,1/13/2016,2000.0,8.3,0.15
444 Gyptis,e,10.27717,195.71779,155.01556,2.769833,0,0.1756456,329.10174,1/13/2016,2000.0,7.83,0.22
409 Aspasia,e,11.26227,242.19359,353.81599,2.5750232,0,0.0732507,212.55286,1/13/2016,2000.0,7.62,0.29
20461 Dioretsa,e,160.40825,297.30489,102.60884,23.8085955,0,0.8990726,50.15339,1/13/2016,2000.0,13.8,0.15
15760 1992 QB1,e,2.19036,359.49117,2.78463,43.7950874,0,0.0661366,26.92799,1/13/2016,2000.0,7.1,0.15
15875 1996 TP66,e,5.68772,316.85124,75.55562,39.3879667,0,0.3298547,22.71828,1/13/2016,2000.0,7,0.15
209 Dido,e,7.17312,0.68438,248.28642,3.1511398,0,0.0584423,276.65855,1/13/2016,2000.0,8.24,0.15
334 Chicago,e,4.64144,130.18362,148.58549,3.8955598,0,0.0221686,84.3317,1/13/2016,2000.0,7.7,0.15
804 Hispania,e,15.39559,347.6134,344.4674,2.8392387,0,0.1393705,236.4826,1/13/2016,2000.0,7.84,0.18
185 Eunike,e,23.23816,153.83965,224.07705,2.73794,0,0.1292805,283.91444,1/13/2016,2000.0,7.62,0.15
139 Juewa,e,10.91258,1.83436,165.62124,2.781642,0,0.1757653,17.72035,1/13/2016,2000.0,7.78,0.15
354 Eleonora,e,18.40283,140.37018,5.48492,2.7975141,0,0.1148435,81.66474,1/13/2016,2000.0,6.44,0.37
85 Io,e,11.96119,203.12358,123.16531,2.6524031,0,0.1938604,306.76977,1/13/2016,2000.0,7.61,0.15
165 Loreley,e,11.22397,302.53466,347.39407,3.1257127,0,0.0847672,90.09992,1/13/2016,2000.0,7.65,0.15
173 Ino,e,14.2104,148.26615,228.41593,2.7472105,0,0.2063849,134.33421,1/13/2016,2000.0,7.66,0.01
11 Parthenope,e,4.62985,125.56671,196.0047,2.4525399,0,0.1002356,330.51956,1/13/2016,2000.0,6.55,0.15
137295 1999 RB216,e,12.71,175.78493,208.88141,47.3271126,0,0.289181,1.75282,1/13/2016,2000.0,7.4,0.15
14 Irene,e,9.1186,86.14881,98.06438,2.5859743,0,0.1663743,240.27805,1/13/2016,2000.0,6.3,0.15
89 Julia,e,16.12828,311.57651,45.39101,2.5509542,0,0.1839816,207.02179,1/13/2016,2000.0,6.6,0.15
536 Merapi,e,19.42636,59.24216,295.97744,3.4977451,0,0.0854739,272.15004,1/13/2016,2000.0,8.2,0.15
145474 2005 SA278,e,16.29663,170.44243,277.24861,92.117719,0,0.6416143,351.42496,1/13/2016,2000.0,6.2,0.15
776 Berbericia,e,18.23612,79.73094,307.15534,2.9306015,0,0.164581,196.35773,1/13/2016,2000.0,7.68,0.34
145 Adeona,e,12.63431,77.42781,44.00736,2.6732846,0,0.1445849,188.63302,1/13/2016,2000.0,8.13,0.15
150 Nuwa,e,2.19345,206.23818,151.65913,2.9821481,0,0.1260808,99.91132,1/13/2016,2000.0,8.23,0.15
49 Pales,e,3.17378,285.98776,110.21599,3.0926568,0,0.2271874,25.35755,1/13/2016,2000.0,7.8,0.15
39 Laetitia,e,10.38098,157.11526,208.23533,2.7681649,0,0.1136641,45.78673,1/13/2016,2000.0,6,0.15
117 Lomia,e,14.90244,348.78974,52.70635,2.9917712,0,0.0281047,279.14565,1/13/2016,2000.0,7.95,0.15
238 Hypatia,e,12.40624,183.88514,210.7316,2.9103562,0,0.0874087,130.34628,1/13/2016,2000.0,8.18,0.15
168 Sibylla,e,4.64646,206.06156,173.14502,3.3845123,0,0.0695678,140.6646,1/13/2016,2000.0,7.94,0.15
283 Emma,e,7.99341,304.36961,53.6147,3.0460077,0,0.147996,90.10691,1/13/2016,2000.0,8.72,0.15
51 Nemausa,e,9.98014,176.01949,2.29935,2.3656391,0,0.0669215,131.2763,1/13/2016,2000.0,7.35,0.08
106 Dione,e,4.59703,62.16231,329.74315,3.1750347,0,0.1666756,16.65497,1/13/2016,2000.0,7.41,0.15
118378 1999 HT11,e,5.05346,87.90871,186.3785,43.9509874,0,0.1150776,323.87627,1/13/2016,2000.0,7.6,0.15
137 Meliboea,e,13.41221,202.30521,107.13923,3.1212344,0,0.2157126,185.33921,1/13/2016,2000.0,8.05,0.15
20 Massalia,e,0.7084,206.12865,256.59227,2.4085919,0,0.1427101,161.54265,1/13/2016,2000.0,6.5,0.25
211 Isolda,e,3.88619,263.65102,173.55492,3.0415609,0,0.1614435,222.95246,1/13/2016,2000.0,7.89,0.12
1172 Aneas,e,16.66463,247.32965,51.32323,5.2178495,0,0.1035007,171.64267,1/13/2016,2000.0,8.33,0.15
144 Vibilia,e,4.80657,76.42302,293.52661,2.6554617,0,0.2346822,95.31048,1/13/2016,2000.0,7.91,0.17
508 Princetonia,e,13.33709,44.22381,194.21264,3.1610281,0,0.0081481,350.94556,1/13/2016,2000.0,8.4,0.15
895 Helio,e,26.08044,264.70893,178.13808,3.2018529,0,0.1457374,206.7966,1/13/2016,2000.0,8.3,0.15
361 Bononia,e,12.62587,18.87373,68.34312,3.9608459,0,0.2141159,304.2166,1/13/2016,2000.0,8.22,0.15
420 Bertholda,e,6.6876,242.67094,235.96672,3.4157875,0,0.0310033,188.85546,1/13/2016,2000.0,8.3,0.15
93 Minerva,e,8.56106,4.06553,274.70302,2.7553611,0,0.1405733,218.80805,1/13/2016,2000.0,7.9,0.15
617 Patroclus,e,22.04762,44.35881,308.5018,5.2176313,0,0.1387284,103.73875,1/13/2016,2000.0,8.19,0.15
308 Polyxo,e,4.36119,181.72786,115.56357,2.7496497,0,0.0399023,27.1354,1/13/2016,2000.0,8.17,0.21
18 Melpomene,e,10.13379,150.46979,227.88234,2.2952381,0,0.218937,287.23665,1/13/2016,2000.0,6.51,0.25
268 Adorea,e,2.44009,120.91418,69.57426,3.0914372,0,0.1367793,265.97944,1/13/2016,2000.0,8.28,0.15
349 Dembowska,e,8.24614,32.35524,346.33586,2.9232617,0,0.0914647,267.35174,1/13/2016,2000.0,5.93,0.37
489 Comacina,e,13.00024,166.89924,12.02118,3.1512886,0,0.0449461,247.18647,1/13/2016,2000.0,8.32,0.15
69 Hesperia,e,8.59229,184.99648,289.51457,2.9762239,0,0.170769,70.29199,1/13/2016,2000.0,7.05,0.19
416400 2003 UZ117,e,27.46226,204.70365,247.33301,44.2251379,0,0.1335641,338.17495,1/13/2016,2000.0,5.2,0.15
762 Pulcova,e,13.08913,305.7587,189.49507,3.1544727,0,0.1031034,313.47123,1/13/2016,2000.0,8.28,0.15
196 Philomela,e,7.25482,72.47607,196.37506,3.1164535,0,0.0183521,239.98349,1/13/2016,2000.0,6.54,0.15
212 Medea,e,4.26342,313.48294,100.9086,3.1163524,0,0.1049528,352.28193,1/13/2016,2000.0,8.28,0.15
95 Arethusa,e,12.99639,243.03903,154.24764,3.0642023,0,0.1524849,213.37609,1/13/2016,2000.0,8,0.15
588 Achilles,e,10.31518,316.56298,133.57946,5.2059183,0,0.1470425,138.59704,1/13/2016,2000.0,8.67,0.15
690 Wratislavia,e,11.26474,253.16211,114.85897,3.1456022,0,0.1817789,18.10845,1/13/2016,2000.0,8.02,0.15
111 Ate,e,4.93221,305.75558,166.41548,2.593108,0,0.1034835,143.41341,1/13/2016,2000.0,8.02,0.15
247 Eukrate,e,24.99014,0.16562,54.87256,2.74189,0,0.2424262,32.68473,1/13/2016,2000.0,8.04,0.15
705 Erminia,e,25.04551,2.89491,101.21467,2.9227223,0,0.0484684,309.4155,1/13/2016,2000.0,8.39,0.15
471 Papagena,e,14.97593,83.99962,314.13326,2.8882542,0,0.2316446,6.51395,1/13/2016,2000.0,6.73,0.37
147 Protogeneia,e,1.93058,248.35743,101.07345,3.1357377,0,0.0280843,57.01577,1/13/2016,2000.0,8.8,0.15
344 Desiderata,e,18.33714,48.09109,237.37921,2.5980687,0,0.3137133,254.17651,1/13/2016,2000.0,8.08,0.15
146 Lucina,e,13.09353,83.97309,146.95887,2.7183594,0,0.066613,154.13839,1/13/2016,2000.0,8.2,0.11
141 Lumen,e,11.89681,318.50337,58.14318,2.6645388,0,0.214751,247.1187,1/13/2016,2000.0,8.4,0.15
356 Liguria,e,8.2243,354.79672,78.54906,2.7582012,0,0.2372658,345.94573,1/13/2016,2000.0,8.22,0.15
216 Kleopatra,e,13.11165,215.35942,180.18402,2.7938085,0,0.2503946,177.25726,1/13/2016,2000.0,7.3,0.29
